start=new Date('2022-12-01T00:00:00.000Z').valueOf();
sats=[{"TLE_LINE1":"1 51862U 22022L   22334.42270032 -.00000339  00000-0 -31906-5 0  9995","GP_ID":"219175428","FILE":"3675646","RCS_SIZE":"LARGE","PERIAPSIS":"537.979","MEAN_MOTION":"15.08837927","SITE":"AFETR","ECCENTRICITY":"0.00025620","LAUNCH_DATE":"2022-03-03","DECAY_DATE":null,"EPHEMERIS_TYPE":"0","MEAN_ELEMENT_THEORY":"SGP4","TLE_LINE2":"2 51862  53.2182 334.8938 0002562  37.6446 322.4725 15.08837927 42728","ARG_OF_PERICENTER":"37.6446","MEAN_MOTION_DOT":"-0.00000339","BSTAR":"-0.00000319060000","REV_AT_EPOCH":"4272","PERIOD":"95.438","TIME_SYSTEM":"UTC","RA_OF_ASC_NODE":"334.8938","CENTER_NAME":"EARTH","MEAN_ANOMALY":"322.4725","OBJECT_NAME":"STARLINK-3508","OBJECT_ID":"2022-022L","COUNTRY_CODE":"US","INCLINATION":"53.2182","CLASSIFICATION_TYPE":"U","OBJECT_TYPE":"PAYLOAD","REF_FRAME":"TEME","ELEMENT_SET_NO":"999","NORAD_CAT_ID":"51862","APOAPSIS":"541.524","SEMIMAJOR_AXIS":"6917.887","MEAN_MOTION_DDOT":"0.0000000000000","EPOCH":"2022-11-30T10:08:41.307648"},{"MEAN_ANOMALY":"327.4704","CENTER_NAME":"EARTH","RA_OF_ASC_NODE":"333.4851","TIME_SYSTEM":"UTC","REV_AT_EPOCH":"4271","PERIOD":"95.438","INCLINATION":"53.2181","COUNTRY_CODE":"US","OBJECT_ID":"2022-022M","OBJECT_NAME":"STARLINK-3555","NORAD_CAT_ID":"51863","ELEMENT_SET_NO":"999","OBJECT_TYPE":"PAYLOAD","REF_FRAME":"TEME","CLASSIFICATION_TYPE":"U","EPOCH":"2022-11-30T17:39:06.804288","SEMIMAJOR_AXIS":"6917.880","MEAN_MOTION_DDOT":"0.0000000000000","APOAPSIS":"541.410","FILE":"3676429","RCS_SIZE":"LARGE","GP_ID":"219217484","TLE_LINE1":"1 51863U 22022M   22334.73549542  .00001538  00000-0  11475-3 0  9992","MEAN_MOTION":"15.08840006","PERIAPSIS":"538.081","DECAY_DATE":null,"LAUNCH_DATE":"2022-03-03","ECCENTRICITY":"0.00024060","SITE":"AFETR","MEAN_MOTION_DOT":"0.00001538","ARG_OF_PERICENTER":"32.6436","BSTAR":"0.00011475000000","TLE_LINE2":"2 51863  53.2181 333.4851 0002406  32.6436 327.4704 15.08840006 42711","MEAN_ELEMENT_THEORY":"SGP4","EPHEMERIS_TYPE":"0"},{"FILE":"3675646","RCS_SIZE":"LARGE","GP_ID":"219176425","TLE_LINE1":"1 51864U 22022N   22334.28286896 -.00000987  00000-0 -43922-4 0  9995","MEAN_MOTION":"15.08830674","PERIAPSIS":"537.920","LAUNCH_DATE":"2022-03-03","DECAY_DATE":null,"SITE":"AFETR","ECCENTRICITY":"0.00026800","TLE_LINE2":"2 51864  53.2188 335.5172 0002680  36.6534 323.4641 15.08830674 42698","MEAN_MOTION_DOT":"-0.00000987","ARG_OF_PERICENTER":"36.6534","BSTAR":"-0.00004392200000","EPHEMERIS_TYPE":"0","MEAN_ELEMENT_THEORY":"SGP4","MEAN_ANOMALY":"323.4641","REV_AT_EPOCH":"4269","PERIOD":"95.438","RA_OF_ASC_NODE":"335.5172","CENTER_NAME":"EARTH","TIME_SYSTEM":"UTC","COUNTRY_CODE":"US","OBJECT_ID":"2022-022N","INCLINATION":"53.2188","OBJECT_NAME":"STARLINK-3548","REF_FRAME":"TEME","OBJECT_TYPE":"PAYLOAD","NORAD_CAT_ID":"51864","ELEMENT_SET_NO":"999","CLASSIFICATION_TYPE":"U","EPOCH":"2022-11-30T06:47:19.878144","APOAPSIS":"541.628","SEMIMAJOR_AXIS":"6917.909","MEAN_MOTION_DDOT":"0.0000000000000"},{"INCLINATION":"53.2168","COUNTRY_CODE":"US","OBJECT_ID":"2022-022P","OBJECT_NAME":"STARLINK-3503","MEAN_ANOMALY":"330.1384","TIME_SYSTEM":"UTC","RA_OF_ASC_NODE":"333.5189","CENTER_NAME":"EARTH","PERIOD":"95.438","REV_AT_EPOCH":"4271","EPOCH":"2022-11-30T17:28:31.849824","SEMIMAJOR_AXIS":"6917.885","MEAN_MOTION_DDOT":"0.0000000000000","APOAPSIS":"541.704","NORAD_CAT_ID":"51865","ELEMENT_SET_NO":"999","OBJECT_TYPE":"PAYLOAD","REF_FRAME":"TEME","CLASSIFICATION_TYPE":"U","MEAN_MOTION":"15.08838490","PERIAPSIS":"537.796","RCS_SIZE":"LARGE","FILE":"3676429","TLE_LINE1":"1 51865U 22022P   22334.72814641  .00001453  00000-0  10939-3 0  9998","GP_ID":"219216483","BSTAR":"0.00010939000000","MEAN_MOTION_DOT":"0.00001453","ARG_OF_PERICENTER":"29.9769","TLE_LINE2":"2 51865  53.2168 333.5189 0002824  29.9769 330.1384 15.08838490 42714","MEAN_ELEMENT_THEORY":"SGP4","EPHEMERIS_TYPE":"0","DECAY_DATE":null,"LAUNCH_DATE":"2022-03-03","ECCENTRICITY":"0.00028240","SITE":"AFETR"},{"OBJECT_TYPE":"PAYLOAD","REF_FRAME":"TEME","ELEMENT_SET_NO":"999","NORAD_CAT_ID":"51866","CLASSIFICATION_TYPE":"U","EPOCH":"2022-11-30T17:44:25.880352","APOAPSIS":"541.702","SEMIMAJOR_AXIS":"6917.909","MEAN_MOTION_DDOT":"0.0000000000000","MEAN_ANOMALY":"329.2884","REV_AT_EPOCH":"4271","PERIOD":"95.438","RA_OF_ASC_NODE":"333.4570","CENTER_NAME":"EARTH","TIME_SYSTEM":"UTC","COUNTRY_CODE":"US","OBJECT_ID":"2022-022Q","INCLINATION":"53.2187","OBJECT_NAME":"STARLINK-3553","LAUNCH_DATE":"2022-03-03","DECAY_DATE":null,"SITE":"AFETR","ECCENTRICITY":"0.00027860","TLE_LINE2":"2 51866  53.2187 333.4570 0002786  30.8272 329.2884 15.08830542 42710","MEAN_MOTION_DOT":"0.00000037","ARG_OF_PERICENTER":"30.8272","BSTAR":"0.00002045600000","EPHEMERIS_TYPE":"0","MEAN_ELEMENT_THEORY":"SGP4","FILE":"3676429","RCS_SIZE":"LARGE","TLE_LINE1":"1 51866U 22022Q   22334.73918843  .00000037  00000-0  20456-4 0  9992","GP_ID":"219216232","MEAN_MOTION":"15.08830542","PERIAPSIS":"537.847"},{"APOAPSIS":"541.312","SEMIMAJOR_AXIS":"6917.890","MEAN_MOTION_DDOT":"0.0000000000000","EPOCH":"2022-11-30T17:23:13.864128","CLASSIFICATION_TYPE":"U","OBJECT_TYPE":"PAYLOAD","REF_FRAME":"TEME","NORAD_CAT_ID":"51867","ELEMENT_SET_NO":"999","OBJECT_NAME":"STARLINK-3590","COUNTRY_CODE":"US","OBJECT_ID":"2022-022R","INCLINATION":"53.2167","PERIOD":"95.438","REV_AT_EPOCH":"4271","RA_OF_ASC_NODE":"333.5344","CENTER_NAME":"EARTH","TIME_SYSTEM":"UTC","MEAN_ANOMALY":"321.5247","EPHEMERIS_TYPE":"0","MEAN_ELEMENT_THEORY":"SGP4","TLE_LINE2":"2 51867  53.2167 333.5344 0002251  38.5906 321.5247 15.08836807 42713","MEAN_MOTION_DOT":"0.00000311","BSTAR":"0.00003765900000","ARG_OF_PERICENTER":"38.5906","SITE":"AFETR","ECCENTRICITY":"0.00022510","LAUNCH_DATE":"2022-03-03","DECAY_DATE":null,"PERIAPSIS":"538.198","MEAN_MOTION":"15.08836807","GP_ID":"219216984","TLE_LINE1":"1 51867U 22022R   22334.72446602  .00000311  00000-0  37659-4 0  9999","RCS_SIZE":"LARGE","FILE":"3676429"},{"RA_OF_ASC_NODE":"335.2845","CENTER_NAME":"EARTH","TIME_SYSTEM":"UTC","REV_AT_EPOCH":"4265","PERIOD":"95.438","MEAN_ANOMALY":"322.5459","OBJECT_NAME":"STARLINK-3578","INCLINATION":"53.2172","COUNTRY_CODE":"US","OBJECT_ID":"2022-022S","CLASSIFICATION_TYPE":"U","OBJECT_TYPE":"PAYLOAD","REF_FRAME":"TEME","ELEMENT_SET_NO":"999","NORAD_CAT_ID":"51868","APOAPSIS":"541.317","SEMIMAJOR_AXIS":"6917.915","MEAN_MOTION_DDOT":"0.0000000000000","EPOCH":"2022-11-30T08:01:31.201824","GP_ID":"219217223","TLE_LINE1":"1 51868U 22022S   22334.33438891 -.00000358  00000-0 -43830-5 0  9990","FILE":"3676429","RCS_SIZE":"LARGE","PERIAPSIS":"538.243","MEAN_MOTION":"15.08828747","SITE":"AFETR","ECCENTRICITY":"0.00022220","LAUNCH_DATE":"2022-03-03","DECAY_DATE":null,"EPHEMERIS_TYPE":"0","MEAN_ELEMENT_THEORY":"SGP4","TLE_LINE2":"2 51868  53.2172 335.2845 0002222  37.5688 322.5459 15.08828747 42652","ARG_OF_PERICENTER":"37.5688","MEAN_MOTION_DOT":"-0.00000358","BSTAR":"-0.00000438300000"},{"CLASSIFICATION_TYPE":"U","REF_FRAME":"TEME","OBJECT_TYPE":"PAYLOAD","ELEMENT_SET_NO":"999","NORAD_CAT_ID":"51869","APOAPSIS":"541.706","MEAN_MOTION_DDOT":"0.0000000000000","SEMIMAJOR_AXIS":"6917.878","EPOCH":"2022-11-30T17:07:19.942464","REV_AT_EPOCH":"4271","PERIOD":"95.438","RA_OF_ASC_NODE":"333.5935","TIME_SYSTEM":"UTC","CENTER_NAME":"EARTH","MEAN_ANOMALY":"330.9144","OBJECT_NAME":"STARLINK-3588","OBJECT_ID":"2022-022T","COUNTRY_CODE":"US","INCLINATION":"53.2179","SITE":"AFETR","ECCENTRICITY":"0.00028380","LAUNCH_DATE":"2022-03-03","DECAY_DATE":null,"EPHEMERIS_TYPE":"0","MEAN_ELEMENT_THEORY":"SGP4","TLE_LINE2":"2 51869  53.2179 333.5935 0002838  29.2006 330.9144 15.08840829 42712","MEAN_MOTION_DOT":"0.00000518","BSTAR":"0.00005068200000","ARG_OF_PERICENTER":"29.2006","TLE_LINE1":"1 51869U 22022T   22334.71342526  .00000518  00000-0  50682-4 0  9990","GP_ID":"219215985","FILE":"3676429","RCS_SIZE":"LARGE","PERIAPSIS":"537.780","MEAN_MOTION":"15.08840829"},{"MEAN_ELEMENT_THEORY":"SGP4","EPHEMERIS_TYPE":"0","BSTAR":"0.00005402900000","MEAN_MOTION_DOT":"0.00000571","ARG_OF_PERICENTER":"35.0510","TLE_LINE2":"2 51870  53.2170 333.5519 0002619  35.0510 325.0654 15.08830872 42768","ECCENTRICITY":"0.00026190","SITE":"AFETR","DECAY_DATE":null,"LAUNCH_DATE":"2022-03-03","PERIAPSIS":"537.961","MEAN_MOTION":"15.08830872","TLE_LINE1":"1 51870U 22022U   22334.72079150  .00000571  00000-0  54029-4 0  9991","GP_ID":"219216733","FILE":"3676429","RCS_SIZE":"LARGE","MEAN_MOTION_DDOT":"0.0000000000000","SEMIMAJOR_AXIS":"6917.908","APOAPSIS":"541.585","EPOCH":"2022-11-30T17:17:56.385600","CLASSIFICATION_TYPE":"U","ELEMENT_SET_NO":"999","NORAD_CAT_ID":"51870","OBJECT_TYPE":"PAYLOAD","REF_FRAME":"TEME","OBJECT_NAME":"STARLINK-3591","COUNTRY_CODE":"US","OBJECT_ID":"2022-022U","INCLINATION":"53.2170","REV_AT_EPOCH":"4276","PERIOD":"95.438","RA_OF_ASC_NODE":"333.5519","CENTER_NAME":"EARTH","TIME_SYSTEM":"UTC","MEAN_ANOMALY":"325.0654"},{"LAUNCH_DATE":"2022-03-03","DECAY_DATE":null,"SITE":"AFETR","ECCENTRICITY":"0.00023890","TLE_LINE2":"2 51871  53.2177 333.6047 0002389  37.0344 323.0813 15.08830813 42821","BSTAR":"-0.00002058400000","MEAN_MOTION_DOT":"-0.00000616","ARG_OF_PERICENTER":"37.0344","EPHEMERIS_TYPE":"0","MEAN_ELEMENT_THEORY":"SGP4","RCS_SIZE":"LARGE","FILE":"3676429","GP_ID":"219217485","TLE_LINE1":"1 51871U 22022V   22334.70975450 -.00000616  00000-0 -20584-4 0  9999","MEAN_MOTION":"15.08830813","PERIAPSIS":"538.121","REF_FRAME":"TEME","OBJECT_TYPE":"PAYLOAD","NORAD_CAT_ID":"51871","ELEMENT_SET_NO":"999","CLASSIFICATION_TYPE":"U","EPOCH":"2022-11-30T17:02:02.788800","APOAPSIS":"541.426","SEMIMAJOR_AXIS":"6917.908","MEAN_MOTION_DDOT":"0.0000000000000","MEAN_ANOMALY":"323.0813","PERIOD":"95.438","REV_AT_EPOCH":"4282","RA_OF_ASC_NODE":"333.6047","CENTER_NAME":"EARTH","TIME_SYSTEM":"UTC","COUNTRY_CODE":"US","OBJECT_ID":"2022-022V","INCLINATION":"53.2177","OBJECT_NAME":"STARLINK-3567"}];
